{
  "type": "FeatureCollection",
  "features": [
    {
      "type": "Feature",
      "properties": {
        "norad_id": 66681,
        "name": "TRANSPORTER-15 R",
        "group": "last-30-days",
        "lat": 41.1235509868181,
        "lon": 59.45521973590425,
        "alt_km": 512.038765344475,
        "timestamp": "2025-12-20T09:36:00.352051+00:00",
        "meta_object_name": "TRANSPORTER-15 R",
        "meta_object_id": "2025-276R",
        "meta_epoch": "2025-12-20T01:30:14.533344",
        "meta_mean_motion": 15.17350131,
        "meta_eccentricity": 0.0004886,
        "meta_inclination": 97.4347,
        "meta_ra_of_asc_node": 65.6707,
        "meta_arg_of_pericenter": 287.8227,
        "meta_mean_anomaly": 72.2474,
        "meta_ephemeris_type": 0,
        "meta_classification_type": "U",
        "meta_norad_cat_id": 66681,
        "meta_element_set_no": 999,
        "meta_rev_at_epoch": 323,
        "meta_bstar": 0.00054857,
        "meta_mean_motion_dot": 0.00010892,
        "meta_mean_motion_ddot": 0,
        "tle_line1": "1 66681U 25276R   25354.06266821  .00010892  00000+0  54857-3 0  9990",
        "tle_line2": "2 66681  97.4347  65.6707 0004886 287.8227  72.2474 15.17350131  3237"
      },
      "geometry": {
        "type": "Point",
        "coordinates": [
          59.45521973590425,
          41.1235509868181
        ]
      }
    },
    {
      "type": "Feature",
      "properties": {
        "norad_id": 66682,
        "name": "TRANSPORTER-15 S",
        "group": "last-30-days",
        "lat": 31.34761551090753,
        "lon": 61.45929233378122,
        "alt_km": 515.5394970044408,
        "timestamp": "2025-12-20T09:36:00.352061+00:00",
        "meta_object_name": "TRANSPORTER-15 S",
        "meta_object_id": "2025-276S",
        "meta_epoch": "2025-12-20T03:07:44.488128",
        "meta_mean_motion": 15.17084078,
        "meta_eccentricity": 0.000474,
        "meta_inclination": 97.4468,
        "meta_ra_of_asc_node": 65.7643,
        "meta_arg_of_pericenter": 251.0315,
        "meta_mean_anomaly": 109.0405,
        "meta_ephemeris_type": 0,
        "meta_classification_type": "U",
        "meta_norad_cat_id": 66682,
        "meta_element_set_no": 999,
        "meta_rev_at_epoch": 324,
        "meta_bstar": 0.00037092,
        "meta_mean_motion_dot": 7.284e-05,
        "meta_mean_motion_ddot": 0,
        "tle_line1": "1 66682U 25276S   25354.13037602  .00007284  00000+0  37092-3 0  9995",
        "tle_line2": "2 66682  97.4468  65.7643 0004740 251.0315 109.0405 15.17084078  3240"
      },
      "geometry": {
        "type": "Point",
        "coordinates": [
          61.45929233378122,
          31.34761551090753
        ]
      }
    },
    {
      "type": "Feature",
      "properties": {
        "norad_id": 66683,
        "name": "TRANSPORTER-15 T",
        "group": "last-30-days",
        "lat": 27.869829066624664,
        "lon": 62.06067476924781,
        "alt_km": 516.1382378094522,
        "timestamp": "2025-12-20T09:36:00.352071+00:00",
        "meta_object_name": "TRANSPORTER-15 T",
        "meta_object_id": "2025-276T",
        "meta_epoch": "2025-12-20T04:43:37.659360",
        "meta_mean_motion": 15.16976032,
        "meta_eccentricity": 0.0004612,
        "meta_inclination": 97.4462,
        "meta_ra_of_asc_node": 65.827,
        "meta_arg_of_pericenter": 253.4472,
        "meta_mean_anomaly": 106.6255,
        "meta_ephemeris_type": 0,
        "meta_classification_type": "U",
        "meta_norad_cat_id": 66683,
        "meta_element_set_no": 999,
        "meta_rev_at_epoch": 325,
        "meta_bstar": 0.00024112,
        "meta_mean_motion_dot": 4.696e-05,
        "meta_mean_motion_ddot": 0,
        "tle_line1": "1 66683U 25276T   25354.19696365  .00004696  00000+0  24112-3 0  9992",
        "tle_line2": "2 66683  97.4462  65.8270 0004612 253.4472 106.6255 15.16976032  3256"
      },
      "geometry": {
        "type": "Point",
        "coordinates": [
          62.06067476924781,
          27.869829066624664
        ]
      }
    },
    {
      "type": "Feature",
      "properties": {
        "norad_id": 66684,
        "name": "TRANSPORTER-15 U",
        "group": "last-30-days",
        "lat": 42.307426788663705,
        "lon": 59.20026347038472,
        "alt_km": 513.356067501606,
        "timestamp": "2025-12-20T09:36:00.352084+00:00",
        "meta_object_name": "TRANSPORTER-15 U",
        "meta_object_id": "2025-276U",
        "meta_epoch": "2025-12-20T01:29:53.273760",
        "meta_mean_motion": 15.17251438,
        "meta_eccentricity": 0.0004334,
        "meta_inclination": 97.4485,
        "meta_ra_of_asc_node": 65.7072,
        "meta_arg_of_pericenter": 252.8538,
        "meta_mean_anomaly": 107.2221,
        "meta_ephemeris_type": 0,
        "meta_classification_type": "U",
        "meta_norad_cat_id": 66684,
        "meta_element_set_no": 999,
        "meta_rev_at_epoch": 323,
        "meta_bstar": 0.00044013,
        "meta_mean_motion_dot": 8.698e-05,
        "meta_mean_motion_ddot": 0,
        "tle_line1": "1 66684U 25276U   25354.06242215  .00008698  00000+0  44013-3 0  9998",
        "tle_line2": "2 66684  97.4485  65.7072 0004334 252.8538 107.2221 15.17251438  3233"
      },
      "geometry": {
        "type": "Point",
        "coordinates": [
          59.20026347038472,
          42.307426788663705
        ]
      }
    },
    {
      "type": "Feature",
      "properties": {
        "norad_id": 66685,
        "name": "TRANSPORTER-15 V",
        "group": "last-30-days",
        "lat": 48.057819595604634,
        "lon": 57.661477957301834,
        "alt_km": 511.3260778414178,
        "timestamp": "2025-12-20T09:36:00.352094+00:00",
        "meta_object_name": "TRANSPORTER-15 V",
        "meta_object_id": "2025-276V",
        "meta_epoch": "2025-12-19T14:23:40.254144",
        "meta_mean_motion": 15.17380939,
        "meta_eccentricity": 0.0003974,
        "meta_inclination": 97.4431,
        "meta_ra_of_asc_node": 65.2408,
        "meta_arg_of_pericenter": 278.7845,
        "meta_mean_anomaly": 81.2938,
        "meta_ephemeris_type": 0,
        "meta_classification_type": "U",
        "meta_norad_cat_id": 66685,
        "meta_element_set_no": 999,
        "meta_rev_at_epoch": 316,
        "meta_bstar": 0.00049331,
        "meta_mean_motion_dot": 9.795e-05,
        "meta_mean_motion_ddot": 0,
        "tle_line1": "1 66685U 25276V   25353.59977146  .00009795  00000+0  49331-3 0  9991",
        "tle_line2": "2 66685  97.4431  65.2408 0003974 278.7845  81.2938 15.17380939  3167"
      },
      "geometry": {
        "type": "Point",
        "coordinates": [
          57.661477957301834,
          48.057819595604634
        ]
      }
    },
    {
      "type": "Feature",
      "properties": {
        "norad_id": 66686,
        "name": "TRANSPORTER-15 W",
        "group": "last-30-days",
        "lat": 32.372145863856225,
        "lon": 61.273742920287255,
        "alt_km": 515.1840102195083,
        "timestamp": "2025-12-20T09:36:00.352104+00:00",
        "meta_object_name": "TRANSPORTER-15 W",
        "meta_object_id": "2025-276W",
        "meta_epoch": "2025-12-20T03:07:26.446944",
        "meta_mean_motion": 15.16972854,
        "meta_eccentricity": 0.0004001,
        "meta_inclination": 97.4465,
        "meta_ra_of_asc_node": 65.7648,
        "meta_arg_of_pericenter": 256.2752,
        "meta_mean_anomaly": 103.8036,
        "meta_ephemeris_type": 0,
        "meta_classification_type": "U",
        "meta_norad_cat_id": 66686,
        "meta_element_set_no": 999,
        "meta_rev_at_epoch": 324,
        "meta_bstar": 0.00026846,
        "meta_mean_motion_dot": 5.235e-05,
        "meta_mean_motion_ddot": 0,
        "tle_line1": "1 66686U 25276W   25354.13016721  .00005235  00000+0  26846-3 0  9997",
        "tle_line2": "2 66686  97.4465  65.7648 0004001 256.2752 103.8036 15.16972854  3247"
      },
      "geometry": {
        "type": "Point",
        "coordinates": [
          61.273742920287255,
          32.372145863856225
        ]
      }
    },
    {
      "type": "Feature",
      "properties": {
        "norad_id": 66687,
        "name": "TRANSPORTER-15 X",
        "group": "last-30-days",
        "lat": 6.028034042600832,
        "lon": 65.20852202831458,
        "alt_km": 515.046365526422,
        "timestamp": "2025-12-20T09:36:00.352116+00:00",
        "meta_object_name": "TRANSPORTER-15 X",
        "meta_object_id": "2025-276X",
        "meta_epoch": "2025-12-20T03:14:22.467264",
        "meta_mean_motion": 15.16636652,
        "meta_eccentricity": 0.0008517,
        "meta_inclination": 97.4399,
        "meta_ra_of_asc_node": 65.7392,
        "meta_arg_of_pericenter": 63.9348,
        "meta_mean_anomaly": 296.276,
        "meta_ephemeris_type": 0,
        "meta_classification_type": "U",
        "meta_norad_cat_id": 66687,
        "meta_element_set_no": 999,
        "meta_rev_at_epoch": 324,
        "meta_bstar": 0.00043002,
        "meta_mean_motion_dot": 8.354e-05,
        "meta_mean_motion_ddot": 0,
        "tle_line1": "1 66687U 25276X   25354.13498226  .00008354  00000+0  43002-3 0  9990",
        "tle_line2": "2 66687  97.4399  65.7392 0008517  63.9348 296.2760 15.16636652  3244"
      },
      "geometry": {
        "type": "Point",
        "coordinates": [
          65.20852202831458,
          6.028034042600832
        ]
      }
    }
  ]
}